{"type":"FeatureCollection", "features": [
{"type":"Feature","geometry":{"type":"Polygon","coordinates":[[[9.6302,49.7277],[9.6557,49.7876],[9.5626,49.742],[9.4312,49.7861],[9.3235,49.7675],[9.3532,49.7194],[9.3936,49.7046],[9.3986,49.7305],[9.4276,49.712],[9.4181,49.6452],[9.3146,49.6566],[9.2587,49.5864],[9.2014,49.5756],[9.1264,49.5757],[9.1089,49.583],[9.1333,49.5204],[8.9374,49.4826],[8.932,49.457],[8.9091,49.4458],[8.9032,49.453],[8.8578,49.4049],[8.8058,49.4256],[8.8344,49.4299],[8.868,49.4779],[8.9021,49.5113],[8.8331,49.4991],[8.8037,49.5276],[8.7291,49.522],[8.6875,49.5793],[8.7042,49.6017],[8.6982,49.6126],[8.595,49.5984],[8.5915,49.525],[8.469,49.5906],[8.429,49.5856],[8.4914,49.3013],[8.4049,49.2277],[8.384,49.201],[8.3847,49.1898],[8.3756,49.156],[8.3144,49.057],[8.2414,48.9688],[7.805,48.5932],[7.7452,48.3298],[7.5779,48.1214],[7.6222,47.9737],[7.5247,47.6602],[7.6695,47.5371],[7.8208,47.5947],[8.0878,47.5629],[8.2048,47.6263],[8.4374,47.5714],[8.629,47.6514],[8.4045,47.6794],[8.5687,47.8144],[8.7304,47.7661],[8.7279,47.6968],[8.7981,47.6799],[8.8082,47.7417],[8.8918,47.6552],[9.0064,47.6951],[8.9916,47.748],[9.2211,47.6682],[9.044,47.8237],[9.6266,47.594],[9.6373,47.6055],[9.6591,47.6135],[9.7465,47.6186],[9.7433,47.6119],[9.7459,47.6085],[9.7499,47.6095],[9.7553,47.6128],[9.752,47.615],[9.7954,47.6377],[9.7993,47.6489],[9.7952,47.6488],[9.7999,47.6505],[9.8279,47.6603],[9.8276,47.6752],[9.8409,47.6783],[9.844,47.679],[9.9645,47.6538],[10.0241,47.6912],[10.0567,47.6837],[10.0731,47.6611],[10.0731,47.6385],[10.0951,47.6689],[10.1284,47.7069],[10.1173,47.7631],[10.0842,47.7778],[10.0897,47.8003],[10.0896,47.8078],[10.1005,47.8453],[10.1428,48.1036],[9.9717,48.3842],[10.0378,48.4634],[10.3185,48.5297],[10.2792,48.7104],[10.3586,48.6586],[10.5051,48.6904],[10.4211,48.7762],[10.467,48.9383],[10.2604,49.0399],[10.2643,49.1426],[10.1316,49.2],[10.1724,49.3915],[10.0938,49.5382],[10.0217,49.4786],[9.9246,49.4887],[9.9336,49.5554],[9.9212,49.5812],[9.8658,49.5399],[9.8468,49.5916],[9.8622,49.6363],[9.8392,49.6398],[9.8325,49.6658],[9.8435,49.677],[9.802,49.7139],[9.8073,49.7251],[9.7566,49.7061],[9.7572,49.6912],[9.7158,49.7244],[9.683,49.6907],[9.6315,49.6978],[9.6365,49.7128],[9.6302,49.7277]]]},"properties":{"id":"DE-BW","name":"Baden-Württemberg","type":"State"}},
{"type":"Feature","geometry":{"type":"Polygon","coordinates":[[[9.6266,47.594],[9.6895,47.5438],[9.7742,47.5968],[9.8737,47.5307],[9.9712,47.5505],[10.0908,47.4566],[10.096,47.3549],[10.2269,47.3929],[10.1702,47.2699],[10.4336,47.3787],[10.4322,47.5856],[10.8831,47.5381],[10.863,47.478],[10.9775,47.3961],[11.2461,47.4348],[11.2739,47.391],[11.4241,47.4456],[11.4374,47.5133],[11.581,47.5118],[11.6363,47.5983],[12.2093,47.6012],[12.1744,47.6989],[12.2543,47.74],[12.2588,47.6762],[12.436,47.7007],[12.5061,47.6289],[12.7828,47.6759],[12.7998,47.5615],[12.9699,47.4771],[13.0538,47.4949],[13.0816,47.6914],[12.9113,47.7312],[13.0011,47.8522],[12.753,48.1173],[13.4106,48.3777],[13.5032,48.5965],[13.7211,48.5168],[13.8359,48.7715],[13.6313,48.9506],[13.4016,48.9839],[13.4037,49.0518],[13.1802,49.1444],[13.0336,49.3086],[12.6611,49.4322],[12.5279,49.6878],[12.4029,49.7552],[12.5477,49.9271],[12.1991,50.1118],[12.0875,50.3343],[11.9989,50.3599],[11.9759,50.3561],[11.9393,50.4269],[11.8864,50.4192],[11.8683,50.4042],[11.8333,50.4041],[11.8158,50.4041],[11.7516,50.4151],[11.522,50.3735],[11.4301,50.5147],[11.3481,50.5219],[11.2481,50.4769],[11.2517,50.2652],[11.1424,50.2871],[11.1132,50.3649],[10.7223,50.3601],[10.7169,50.3415],[10.7341,50.3452],[10.7173,50.3229],[10.7748,50.2896],[10.8554,50.249],[10.8267,50.234],[10.8036,50.2487],[10.7576,50.2373],[10.7346,50.2484],[10.6881,50.2183],[10.6414,50.2182],[10.6178,50.248],[10.6055,50.3302],[10.1398,50.5425],[10.122,50.5575],[10.0398,50.5159],[9.9586,50.4291],[9.9646,50.4254],[9.8706,50.4097],[9.8591,50.3984],[9.7993,50.4243],[9.7526,50.4014],[9.7304,50.3558],[9.7427,50.3447],[9.7097,50.2921],[9.6604,50.232],[9.5001,50.2419],[9.5194,50.0925],[9.2379,50.1493],[9.0179,50.0713],[9.0481,50.0424],[9.0463,49.8472],[9.1635,49.7454],[9.1089,49.583],[9.1264,49.5757],[9.2014,49.5756],[9.2587,49.5864],[9.3146,49.6566],[9.4181,49.6452],[9.4276,49.712],[9.3986,49.7305],[9.3936,49.7046],[9.3532,49.7194],[9.3235,49.7675],[9.4312,49.7861],[9.5626,49.742],[9.6557,49.7876],[9.6302,49.7277],[9.6365,49.7128],[9.6315,49.6978],[9.683,49.6907],[9.7158,49.7244],[9.7572,49.6912],[9.7566,49.7061],[9.8073,49.7251],[9.802,49.7139],[9.8435,49.677],[9.8325,49.6658],[9.8392,49.6398],[9.8622,49.6363],[9.8468,49.5916],[9.8658,49.5399],[9.9212,49.5812],[9.9336,49.5554],[9.9246,49.4887],[10.0217,49.4786],[10.0938,49.5382],[10.1724,49.3915],[10.1316,49.2],[10.2643,49.1426],[10.2604,49.0399],[10.467,48.9383],[10.4211,48.7762],[10.5051,48.6904],[10.3586,48.6586],[10.2792,48.7104],[10.3185,48.5297],[10.0378,48.4634],[9.9717,48.3842],[10.1428,48.1036],[10.1005,47.8453],[10.0896,47.8078],[10.0897,47.8003],[10.0842,47.7778],[10.1173,47.7631],[10.1284,47.7069],[10.0951,47.6689],[10.0731,47.6385],[10.0731,47.6611],[10.0567,47.6837],[10.0241,47.6912],[9.9645,47.6538],[9.844,47.679],[9.8409,47.6783],[9.8276,47.6752],[9.8279,47.6603],[9.7999,47.6505],[9.7952,47.6488],[9.7993,47.6489],[9.7954,47.6377],[9.752,47.615],[9.7553,47.6128],[9.7499,47.6095],[9.7459,47.6085],[9.7433,47.6119],[9.7465,47.6186],[9.6591,47.6135],[9.6373,47.6055],[9.6266,47.594]]]},"properties":{"id":"DE-BY","name":"Bayern","type":"State"}},
{"type":"Feature","geometry":{"type":"Polygon","coordinates":[[[13.3045,52.6517],[13.1367,52.5762],[13.1606,52.5648],[13.1352,52.5392],[13.1281,52.5133],[13.1765,52.5052],[13.1193,52.4467],[13.0995,52.4063],[13.1413,52.3871],[13.166,52.3979],[13.252,52.4189],[13.2756,52.4001],[13.3489,52.4101],[13.3965,52.3872],[13.396,52.3761],[13.4388,52.3829],[13.4278,52.409],[13.5427,52.3998],[13.6031,52.3952],[13.6145,52.3802],[13.6506,52.3759],[13.6437,52.3575],[13.661,52.3387],[13.7112,52.3787],[13.7243,52.4007],[13.7489,52.4078],[13.7505,52.4411],[13.7629,52.4483],[13.6186,52.4691],[13.6274,52.5283],[13.5746,52.5661],[13.5149,52.5893],[13.5294,52.6409],[13.4875,52.6564],[13.4819,52.6676],[13.4378,52.6349],[13.4018,52.6465],[13.3155,52.6256],[13.3045,52.6517]]]},"properties":{"id":"DE-BE","name":"Berlin","type":"State"}},
{"type":"Feature","geometry":{"type":"Polygon","coordinates":[[[13.872,53.4844],[13.8493,53.5145],[13.8247,53.5223],[13.8021,53.5561],[13.7751,53.5269],[13.7774,53.4712],[13.7094,53.4799],[13.4053,53.2439],[13.3019,53.2753],[12.9821,53.1575],[12.0859,53.366],[11.7785,53.2236],[11.7348,53.2128],[11.5918,53.2104],[11.5544,53.2032],[11.541,53.1214],[11.4041,53.1113],[11.2735,53.1198],[11.2734,53.1012],[11.4037,53.0704],[11.4597,53.0774],[11.5587,53.0505],[11.6018,53.0316],[11.639,53.0387],[11.6513,53.0311],[11.6446,53.0014],[11.908,52.8876],[12.2395,52.8546],[12.2456,52.6244],[12.1511,52.5216],[12.3394,52.4751],[12.2213,52.1653],[12.4601,52.0146],[12.4908,52.029],[13.1631,51.8721],[13.1798,51.6906],[13.0637,51.6479],[13.0646,51.6468],[13.0982,51.6067],[13.17,51.5983],[13.2261,51.5051],[13.2015,51.4906],[13.2866,51.3858],[13.4215,51.454],[13.5601,51.3699],[14.0152,51.3743],[14.1536,51.5451],[14.342,51.5008],[14.6654,51.5508],[14.685,51.5994],[14.7387,51.6669],[14.585,51.8371],[14.7413,52.0734],[14.6693,52.1216],[14.6996,52.2411],[14.5709,52.2896],[14.5289,52.3964],[14.6391,52.58],[14.1213,52.8403],[14.1425,52.9611],[14.3661,53.0765],[14.4039,53.3337],[14.3834,53.3155],[14.3199,53.3126],[14.2663,53.2767],[14.2583,53.2583],[14.1001,53.2614],[14.2079,53.3405],[14.2432,53.3841],[14.2081,53.4219],[14.1065,53.4203],[14.0439,53.429],[14,53.4337],[13.9174,53.4205],[13.9122,53.4355],[13.9196,53.4501],[13.8774,53.4731],[13.872,53.4844]],[[13.3045,52.6517],[13.3155,52.6256],[13.4018,52.6465],[13.4378,52.6349],[13.4819,52.6676],[13.4875,52.6564],[13.5294,52.6409],[13.5149,52.5893],[13.5746,52.5661],[13.6274,52.5283],[13.6186,52.4691],[13.7629,52.4483],[13.7505,52.4411],[13.7489,52.4078],[13.7243,52.4007],[13.7112,52.3787],[13.661,52.3387],[13.6437,52.3575],[13.6506,52.3759],[13.6145,52.3802],[13.6031,52.3952],[13.5427,52.3998],[13.4278,52.409],[13.4388,52.3829],[13.396,52.3761],[13.3965,52.3872],[13.3489,52.4101],[13.2756,52.4001],[13.252,52.4189],[13.166,52.3979],[13.1413,52.3871],[13.0995,52.4063],[13.1193,52.4467],[13.1765,52.5052],[13.1281,52.5133],[13.1352,52.5392],[13.1606,52.5648],[13.1367,52.5762],[13.3045,52.6517]]]},"properties":{"id":"DE-BB","name":"Brandenburg","type":"State"}},
{"type":"Feature","geometry":{"type":"Polygon","coordinates":[[[8.9854,53.1282],[8.9111,53.138],[8.8619,53.137],[8.8421,53.1627],[8.7862,53.169],[8.7431,53.168],[8.6746,53.1777],[8.5739,53.2124],[8.5237,53.2297],[8.6269,53.1467],[8.6722,53.1068],[8.7432,53.0449],[8.7557,53.0415],[8.8115,53.0352],[8.8605,53.0399],[8.9472,53.0267],[8.983,53.0497],[8.993,53.0985],[8.9491,53.1163],[8.9854,53.1282]]]},"properties":{"id":"DE-HB","name":"Bremen","type":"State"}},
{"type":"Feature","geometry":{"type":"Polygon","coordinates":[[[10.1667,53.7407],[10.0845,53.7146],[10.0727,53.6887],[9.9898,53.6773],[9.9069,53.6622],[9.8886,53.6326],[9.7668,53.6282],[9.7417,53.6132],[9.7241,53.5701],[9.7686,53.5655],[9.7626,53.5432],[9.7629,53.532],[9.7827,53.5097],[9.7829,53.5022],[9.8608,53.4468],[9.8988,53.4695],[9.9059,53.4247],[9.996,53.4291],[10.0152,53.4516],[10.0537,53.4742],[10.1188,53.4336],[10.2481,53.4047],[10.3368,53.461],[10.3058,53.4572],[10.2461,53.5086],[10.233,53.5159],[10.1942,53.5231],[10.1682,53.5341],[10.1613,53.5451],[10.1721,53.5968],[10.1974,53.6043],[10.2214,53.6413],[10.2278,53.6413],[10.1618,53.7001],[10.1678,53.7112],[10.1866,53.7186],[10.1985,53.7408],[10.1667,53.7407]]]},"properties":{"id":"DE-HH","name":"Hamburg","type":"State"}},
{"type":"Feature","geometry":{"type":"Polygon","coordinates":[[[9.1089,49.583],[9.1635,49.7454],[9.0463,49.8472],[9.0481,50.0424],[9.0179,50.0713],[9.2379,50.1493],[9.5194,50.0925],[9.5001,50.2419],[9.6604,50.232],[9.7097,50.2921],[9.7427,50.3447],[9.7304,50.3558],[9.7526,50.4014],[9.7993,50.4243],[9.8591,50.3984],[9.8706,50.4097],[9.9646,50.4254],[9.9586,50.4291],[10.0398,50.5159],[10.0456,50.5234],[10.0863,50.6212],[10.0735,50.6585],[9.8731,50.6418],[10.0629,50.885],[9.9484,50.9484],[10.1325,51.0107],[10.2096,51.014],[10.2033,51.0437],[10.1497,51.0551],[10.1247,51.1406],[10.2078,51.1512],[10.237,51.1881],[9.9735,51.2862],[9.9249,51.3718],[9.9371,51.3792],[9.9371,51.3794],[9.9366,51.394],[9.9116,51.4087],[9.9112,51.4198],[9.8693,51.3755],[9.7949,51.4082],[9.7001,51.3667],[9.7312,51.3008],[9.5618,51.3484],[9.6462,51.4208],[9.5904,51.5228],[9.689,51.5831],[9.628,51.6373],[9.5693,51.6254],[9.557,51.6399],[9.5281,51.6283],[9.4926,51.6388],[9.4517,51.6454],[9.435,51.6303],[9.2287,51.4597],[9.096,51.4609],[9.06,51.5011],[9.0419,51.5193],[8.9125,51.4797],[8.9576,51.3873],[8.7038,51.3749],[8.569,51.2751],[8.7522,51.26],[8.7346,51.1065],[8.5382,51.0951],[8.4715,50.9115],[8.3805,50.859],[8.2757,50.8812],[8.1583,50.7585],[8.1531,50.6948],[8.1392,50.6989],[8.1187,50.6757],[8.1562,50.6343],[8.1408,50.6117],[8.155,50.5624],[8.141,50.5359],[8.0893,50.5392],[8.011,50.5261],[7.9842,50.4136],[8.1389,50.2741],[7.9196,50.2037],[7.9411,50.1025],[7.87,50.1286],[7.7851,50.0531],[7.8877,49.9707],[8.2577,50.0271],[8.3468,49.9593],[8.4638,49.745],[8.3844,49.7056],[8.3934,49.6175],[8.4109,49.6108],[8.429,49.5856],[8.469,49.5906],[8.5915,49.525],[8.595,49.5984],[8.6982,49.6126],[8.7042,49.6017],[8.6875,49.5793],[8.7291,49.522],[8.8037,49.5276],[8.8331,49.4991],[8.9021,49.5113],[8.868,49.4779],[8.8344,49.4299],[8.8058,49.4256],[8.8578,49.4049],[8.9032,49.453],[8.9091,49.4458],[8.932,49.457],[8.9374,49.4826],[9.1333,49.5204],[9.1089,49.583]]]},"properties":{"id":"DE-HE","name":"Hessen","type":"State"}},
{"type":"Feature","geometry":{"type":"MultiPolygon","coordinates":[[[[14.4039,53.3337],[14.3249,53.6186],[14.2153,53.7026],[14.2825,53.7396],[14.0386,53.7551],[13.8064,53.8582],[14.2173,53.8654],[14.2214,53.9301],[13.8036,54.1785],[13.7492,54.159],[13.8125,54.099],[13.7692,54.019],[13.8581,54.0485],[13.8625,53.9993],[13.9742,54.0638],[14.0469,53.9965],[13.9597,53.934],[13.9058,53.9899],[13.9375,53.9085],[13.8247,53.8662],[13.9142,53.9224],[13.7442,54.0293],[13.8069,54.1032],[13.6964,54.1718],[13.4569,54.0907],[13.4158,54.1751],[13.3181,54.1599],[13.2864,54.2351],[13.1058,54.2818],[13.0197,54.439],[12.8103,54.3451],[12.6708,54.4226],[12.9625,54.4376],[12.5197,54.4843],[12.1247,54.1501],[11.6825,54.1532],[11.4903,53.9682],[11.4925,54.0229],[11.3781,53.9974],[11.4836,53.9685],[11.4547,53.9004],[11.2586,53.934],[11.1792,54.0157],[10.8878,53.9239],[10.9637,53.911],[10.8944,53.9126],[10.8753,53.9278],[10.7679,53.8811],[10.7563,53.8368],[10.7689,53.8107],[10.7691,53.7959],[10.7574,53.7701],[10.801,53.7472],[10.9212,53.7005],[10.9234,53.5853],[10.6394,53.4651],[10.6218,53.3917],[10.6034,53.3883],[10.5988,53.3769],[10.6096,53.3809],[10.8387,53.3092],[10.994,53.3348],[11.2362,53.1425],[11.2735,53.1198],[11.4041,53.1113],[11.541,53.1214],[11.5544,53.2032],[11.5918,53.2104],[11.7348,53.2128],[11.7785,53.2236],[12.0859,53.366],[12.9821,53.1575],[13.3019,53.2753],[13.4053,53.2439],[13.7094,53.4799],[13.7774,53.4712],[13.7751,53.5269],[13.8021,53.5561],[13.8247,53.5223],[13.8493,53.5145],[13.872,53.4844],[13.8774,53.4731],[13.9196,53.4501],[13.9122,53.4355],[13.9174,53.4205],[14,53.4337],[14.0439,53.429],[14.1065,53.4203],[14.2081,53.4219],[14.2432,53.3841],[14.2079,53.3405],[14.1001,53.2614],[14.2583,53.2583],[14.2663,53.2767],[14.3199,53.3126],[14.3834,53.3155],[14.4039,53.3337]]],[[[13.1682,54.4512],[13.2619,54.3829],[13.1275,54.3713],[13.1392,54.2824],[13.3353,54.2782],[13.2903,54.2513],[13.3936,54.221],[13.3525,54.2696],[13.5808,54.3529],[13.6831,54.3493],[13.6108,54.3162],[13.7042,54.3262],[13.6464,54.2965],[13.7253,54.2735],[13.7669,54.3415],[13.5697,54.4618],[13.6797,54.5626],[13.4208,54.5779],[13.4292,54.6846],[13.2497,54.6599],[13.1608,54.559],[13.2831,54.6463],[13.2431,54.5588],[13.3703,54.6146],[13.5064,54.481],[13.3536,54.581],[13.3053,54.514],[13.1436,54.5468],[13.2681,54.4793],[13.1682,54.4512]]]]},"properties":{"id":"DE-MV","name":"Mecklenburg-Vorpommern","type":"State"}},
{"type":"Feature","geometry":{"type":"MultiPolygon","coordinates":[[[[11.2735,53.1198],[11.2362,53.1425],[10.994,53.3348],[10.8387,53.3092],[10.6096,53.3809],[10.5988,53.3769],[10.5794,53.3699],[10.3917,53.4354],[10.3368,53.461],[10.2481,53.4047],[10.1188,53.4336],[10.0537,53.4742],[10.0152,53.4516],[9.996,53.4291],[9.9059,53.4247],[9.8988,53.4695],[9.8608,53.4468],[9.7829,53.5022],[9.7827,53.5097],[9.7629,53.532],[9.7626,53.5432],[9.7686,53.5655],[9.7241,53.5701],[9.6736,53.5753],[9.507,53.7009],[9.2882,53.8694],[9.0964,53.884],[8.8836,53.8279],[8.6086,53.879],[8.4836,53.6943],[8.5708,53.5182],[8.2719,53.6099],[8.2525,53.399],[8.0736,53.4649],[8.1725,53.5546],[8.0158,53.7107],[7.3169,53.6835],[7.0903,53.5765],[7.1336,53.5324],[7.0397,53.5382],[6.9986,53.3613],[7.2492,53.3299],[7.2615,52.9975],[7.0943,52.8465],[7.0519,52.6358],[6.7438,52.6471],[6.7683,52.5652],[6.6838,52.5561],[6.7649,52.4649],[7.0063,52.4695],[7.1066,52.2444],[7.5866,52.3763],[7.6133,52.476],[7.9378,52.3687],[7.9322,52.1774],[8.0251,52.162],[7.9188,52.0497],[7.9861,52.0368],[8.2698,52.1346],[8.4042,52.1108],[8.5207,52.1873],[8.4465,52.2121],[8.4437,52.3648],[8.2983,52.4587],[8.3471,52.456],[8.6537,52.5325],[8.6728,52.518],[8.7404,52.3886],[8.9404,52.4032],[9.0941,52.4991],[9.1378,52.4774],[9.1285,52.4138],[9.0993,52.3872],[8.9647,52.2805],[9.0763,52.2301],[8.9871,52.1951],[9.0143,52.1359],[9.1475,52.1343],[9.1919,51.9634],[9.2818,51.9685],[9.3412,51.8537],[9.4659,51.8555],[9.389,51.7582],[9.3843,51.736],[9.3824,51.6477],[9.4517,51.6454],[9.4926,51.6388],[9.5281,51.6283],[9.557,51.6399],[9.5693,51.6254],[9.628,51.6373],[9.689,51.5831],[9.5904,51.5228],[9.6462,51.4208],[9.5618,51.3484],[9.7312,51.3008],[9.7001,51.3667],[9.7949,51.4082],[9.8693,51.3755],[9.9112,51.4198],[9.9116,51.4087],[9.9366,51.394],[9.9371,51.3794],[9.9371,51.3792],[9.9607,51.3939],[10.3027,51.5072],[10.3671,51.5553],[10.6472,51.5529],[10.6705,51.574],[10.6407,51.5802],[10.6342,51.6035],[10.6399,51.6193],[10.7051,51.6436],[10.5776,51.7827],[10.6557,51.9046],[10.588,51.9799],[10.6001,52.0133],[10.6246,52.0166],[10.8578,52.051],[10.9748,52.0573],[10.9493,52.1054],[11.0682,52.1522],[10.9876,52.337],[11.0787,52.3735],[10.9362,52.459],[11.0101,52.4919],[10.978,52.6218],[10.7958,52.7205],[10.7662,52.8512],[10.9425,52.8514],[11.0419,52.9131],[11.3214,52.8737],[11.4955,52.9543],[11.5333,53.0061],[11.6018,53.0316],[11.5587,53.0505],[11.4597,53.0774],[11.4037,53.0704],[11.2734,53.1012],[11.2735,53.1198]],[[8.9854,53.1282],[8.9491,53.1163],[8.993,53.0985],[8.983,53.0497],[8.9472,53.0267],[8.8605,53.0399],[8.8115,53.0352],[8.7557,53.0415],[8.7432,53.0449],[8.6722,53.1068],[8.6269,53.1467],[8.5237,53.2297],[8.5739,53.2124],[8.6746,53.1777],[8.7431,53.168],[8.7862,53.169],[8.8421,53.1627],[8.8619,53.137],[8.9111,53.138],[8.9854,53.1282]]],[[[6.7619,53.6188],[6.6308,53.5979],[6.7497,53.5568],[6.7619,53.6188]]]]},"properties":{"id":"DE-NI","name":"Niedersachsen","type":"State"}},
{"type":"Feature","geometry":{"type":"Polygon","coordinates":[[[9.4517,51.6454],[9.3824,51.6477],[9.3843,51.736],[9.389,51.7582],[9.4659,51.8555],[9.3412,51.8537],[9.2818,51.9685],[9.1919,51.9634],[9.1475,52.1343],[9.0143,52.1359],[8.9871,52.1951],[9.0763,52.2301],[8.9647,52.2805],[9.0993,52.3872],[9.1285,52.4138],[9.1378,52.4774],[9.0941,52.4991],[8.9404,52.4032],[8.7404,52.3886],[8.6728,52.518],[8.6537,52.5325],[8.3471,52.456],[8.2983,52.4587],[8.4437,52.3648],[8.4465,52.2121],[8.5207,52.1873],[8.4042,52.1108],[8.2698,52.1346],[7.9861,52.0368],[7.9188,52.0497],[8.0251,52.162],[7.9322,52.1774],[7.9378,52.3687],[7.6133,52.476],[7.5866,52.3763],[7.1066,52.2444],[6.7007,52.0738],[6.8354,51.9955],[6.7427,51.8991],[6.4023,51.8748],[6.4175,51.8256],[6.1589,51.9054],[6.169,51.845],[5.9646,51.8244],[5.964,51.7416],[6.2155,51.517],[6.232,51.366],[6.0782,51.2447],[6.1718,51.1529],[5.9695,51.0345],[5.8716,51.0508],[5.9037,50.9783],[6.03,50.9834],[6.0829,50.9218],[5.9632,50.7951],[6.1731,50.6214],[6.2784,50.6164],[6.1722,50.5505],[6.33,50.4936],[6.3398,50.3799],[6.4212,50.3223],[6.3945,50.3549],[6.3802,50.3805],[6.4155,50.385],[6.4501,50.3339],[6.6071,50.3816],[6.6414,50.3374],[6.8093,50.3498],[6.7529,50.4682],[6.866,50.4455],[6.932,50.5527],[7.5981,50.7387],[7.7996,50.943],[8.0708,50.6961],[8.1211,50.7022],[8.1392,50.6989],[8.1531,50.6948],[8.1583,50.7585],[8.2757,50.8812],[8.3805,50.859],[8.4715,50.9115],[8.5382,51.0951],[8.7346,51.1065],[8.7522,51.26],[8.569,51.2751],[8.7038,51.3749],[8.9576,51.3873],[8.9125,51.4797],[9.0419,51.5193],[9.06,51.5011],[9.096,51.4609],[9.2287,51.4597],[9.435,51.6303],[9.4517,51.6454]]]},"properties":{"id":"DE-NW","name":"Nordrhein-Westfalen","type":"State"}},
{"type":"Feature","geometry":{"type":"Polygon","coordinates":[[[8.429,49.5856],[8.4109,49.6108],[8.3934,49.6175],[8.3844,49.7056],[8.4638,49.745],[8.3468,49.9593],[8.2577,50.0271],[7.8877,49.9707],[7.7851,50.0531],[7.87,50.1286],[7.9411,50.1025],[7.9196,50.2037],[8.1389,50.2741],[7.9842,50.4136],[8.011,50.5261],[8.0893,50.5392],[8.141,50.5359],[8.155,50.5624],[8.1408,50.6117],[8.1562,50.6343],[8.1187,50.6757],[8.1392,50.6989],[8.1211,50.7022],[8.0708,50.6961],[7.7996,50.943],[7.5981,50.7387],[6.932,50.5527],[6.866,50.4455],[6.7529,50.4682],[6.8093,50.3498],[6.6414,50.3374],[6.6071,50.3816],[6.4501,50.3339],[6.4155,50.385],[6.3802,50.3805],[6.3945,50.3549],[6.4212,50.3223],[6.1704,50.2363],[6.0984,50.0599],[6.3123,49.8355],[6.5283,49.8086],[6.3636,49.574],[6.4249,49.5471],[6.6087,49.5202],[7.0037,49.6382],[7.0738,49.6301],[7.3118,49.542],[7.2561,49.4403],[7.4096,49.3779],[7.2924,49.2457],[7.3539,49.1706],[7.4913,49.1685],[7.6711,49.046],[7.937,49.0562],[8.2414,48.9688],[8.3144,49.057],[8.3756,49.156],[8.3847,49.1898],[8.384,49.201],[8.4049,49.2277],[8.4914,49.3013],[8.429,49.5856]]]},"properties":{"id":"DE-RP","name":"Rheinland-Pfalz","type":"State"}},
{"type":"Feature","geometry":{"type":"Polygon","coordinates":[[[6.4249,49.5471],[6.3548,49.465],[6.5354,49.4342],[6.738,49.1646],[6.8345,49.1514],[6.8404,49.2142],[6.9243,49.2231],[7.058,49.1126],[7.0982,49.1543],[7.2934,49.1152],[7.3539,49.1706],[7.2924,49.2457],[7.4096,49.3779],[7.2561,49.4403],[7.3118,49.542],[7.0738,49.6301],[7.0037,49.6382],[6.6087,49.5202],[6.4249,49.5471]]]},"properties":{"id":"DE-SL","name":"Saarland","type":"State"}},
{"type":"Feature","geometry":{"type":"Polygon","coordinates":[[[11.6018,53.0316],[11.5333,53.0061],[11.4955,52.9543],[11.3214,52.8737],[11.0419,52.9131],[10.9425,52.8514],[10.7662,52.8512],[10.7958,52.7205],[10.978,52.6218],[11.0101,52.4919],[10.9362,52.459],[11.0787,52.3735],[10.9876,52.337],[11.0682,52.1522],[10.9493,52.1054],[10.9748,52.0573],[10.8578,52.051],[10.6246,52.0166],[10.6001,52.0133],[10.588,51.9799],[10.6557,51.9046],[10.5776,51.7827],[10.7051,51.6436],[10.8199,51.6408],[10.9395,51.6071],[10.8916,51.5958],[10.9923,51.417],[11.3978,51.3845],[11.4805,51.2991],[11.3659,51.2212],[11.4844,51.1583],[11.4897,51.1026],[11.5614,51.1101],[11.6033,51.1175],[12.2227,50.9562],[12.2525,50.9559],[12.253,50.9815],[12.3019,51.0434],[12.2971,51.0948],[12.1857,51.1842],[12.1987,51.5043],[12.1992,51.5227],[12.248,51.5517],[12.8421,51.6806],[12.878,51.6727],[13.0392,51.6372],[13.0646,51.6468],[13.0637,51.6479],[13.1798,51.6906],[13.1631,51.8721],[12.4908,52.029],[12.4601,52.0146],[12.2213,52.1653],[12.3394,52.4751],[12.1511,52.5216],[12.2456,52.6244],[12.2395,52.8546],[11.908,52.8876],[11.6446,53.0014],[11.6513,53.0311],[11.639,53.0387],[11.6018,53.0316]]]},"properties":{"id":"DE-ST","name":"Sachsen-Anhalt","type":"State"}},
{"type":"Feature","geometry":{"type":"Polygon","coordinates":[[[12.0875,50.3343],[12.1941,50.3229],[12.3276,50.1797],[12.5161,50.4001],[12.8288,50.4586],[12.977,50.4143],[13.0333,50.5085],[13.196,50.5006],[13.3749,50.6437],[13.4652,50.5965],[13.549,50.7132],[13.8508,50.7182],[13.9546,50.8037],[14.3723,50.8886],[14.4009,50.9423],[14.2469,50.9732],[14.294,51.0542],[14.3974,51.0083],[14.5017,51.0515],[14.5951,50.9885],[14.5601,50.9235],[14.6517,50.9326],[14.6119,50.8548],[14.8051,50.8289],[15.0339,51.2951],[14.928,51.4859],[14.7391,51.5241],[14.685,51.5994],[14.6654,51.5508],[14.342,51.5008],[14.1536,51.5451],[14.0152,51.3743],[13.5601,51.3699],[13.4215,51.454],[13.2866,51.3858],[13.2015,51.4906],[13.2261,51.5051],[13.17,51.5983],[13.0982,51.6067],[13.0646,51.6468],[13.0392,51.6372],[12.878,51.6727],[12.8421,51.6806],[12.248,51.5517],[12.1992,51.5227],[12.1987,51.5043],[12.1857,51.1842],[12.2971,51.0948],[12.4697,51.0889],[12.6373,50.9426],[12.6541,50.9165],[12.2619,50.8239],[12.2661,50.725],[12.3316,50.6955],[12.1791,50.6358],[12.1473,50.5874],[12.1709,50.5837],[12.1227,50.5724],[12.0875,50.5835],[12.0389,50.5575],[12.0113,50.6169],[12.0179,50.6392],[11.8787,50.5458],[11.9367,50.5125],[11.9475,50.4827],[11.9339,50.4381],[11.9393,50.4269],[11.9759,50.3561],[11.9989,50.3599],[12.0875,50.3343]]]},"properties":{"id":"DE-SN","name":"Sachsen","type":"State"}},
{"type":"Feature","geometry":{"type":"MultiPolygon","coordinates":[[[[10.3368,53.461],[10.3917,53.4354],[10.5794,53.3699],[10.5988,53.3769],[10.6034,53.3883],[10.6218,53.3917],[10.6394,53.4651],[10.9234,53.5853],[10.9212,53.7005],[10.801,53.7472],[10.7574,53.7701],[10.7691,53.7959],[10.7689,53.8107],[10.7563,53.8368],[10.7679,53.8811],[10.8753,53.9278],[10.8944,53.9126],[10.9637,53.911],[10.8878,53.9239],[10.7508,54.0488],[11.0936,54.1979],[11.0586,54.3543],[11.1281,54.3907],[10.7047,54.3049],[10.3186,54.4357],[10.1319,54.3112],[10.1992,54.456],[9.8403,54.4674],[10.0275,54.5504],[10.0342,54.6699],[9.9481,54.6738],[9.7147,54.4912],[9.5453,54.5093],[9.7125,54.5196],[9.9831,54.7012],[10.0347,54.6724],[9.9553,54.7801],[9.8431,54.7562],[9.6031,54.8315],[9.6136,54.876],[9.4353,54.7885],[9.4087,54.8412],[9.2826,54.8022],[8.9751,54.9006],[8.6375,54.9129],[8.5245,54.8826],[8.8903,54.5926],[8.8064,54.4704],[8.9814,54.521],[9.0236,54.4735],[8.6092,54.3865],[8.6858,54.3571],[8.5797,54.3096],[8.8464,54.2629],[8.9519,54.3129],[8.8075,54.1751],[8.9819,54.0457],[8.8197,54.0243],[8.9503,53.9024],[9.0964,53.884],[9.2882,53.8694],[9.507,53.7009],[9.6736,53.5753],[9.7241,53.5701],[9.7417,53.6132],[9.7668,53.6282],[9.8886,53.6326],[9.9069,53.6622],[9.9898,53.6773],[10.0727,53.6887],[10.0845,53.7146],[10.1667,53.7407],[10.1985,53.7408],[10.1866,53.7186],[10.1678,53.7112],[10.1618,53.7001],[10.2278,53.6413],[10.2214,53.6413],[10.1974,53.6043],[10.1721,53.5968],[10.1613,53.5451],[10.1682,53.5341],[10.1942,53.5231],[10.233,53.5159],[10.2461,53.5086],[10.3058,53.4572],[10.3368,53.461]]],[[[11.0697,54.5347],[11.0092,54.4412],[11.3136,54.4021],[11.2342,54.5068],[11.0697,54.5347]]],[[[8.4175,55.0565],[8.2981,54.9093],[8.2986,54.7421],[8.3103,54.8743],[8.5096,54.8818],[8.3669,54.9024],[8.4175,55.0565]]],[[[8.6919,54.5571],[8.5925,54.5335],[8.6231,54.489],[8.6919,54.5571]]],[[[8.5397,54.7557],[8.3969,54.7057],[8.5669,54.6799],[8.5397,54.7557]]],[[[8.3569,54.7115],[8.2925,54.6671],[8.3625,54.6085],[8.3569,54.7115]]]]},"properties":{"id":"DE-SH","name":"Schleswig-Holstein","type":"State"}},
{"type":"Feature","geometry":{"type":"Polygon","coordinates":[[[11.9393,50.4269],[11.9339,50.4381],[11.9475,50.4827],[11.9367,50.5125],[11.8787,50.5458],[12.0179,50.6392],[12.0113,50.6169],[12.0389,50.5575],[12.0875,50.5835],[12.1227,50.5724],[12.1709,50.5837],[12.1473,50.5874],[12.1791,50.6358],[12.3316,50.6955],[12.2661,50.725],[12.2619,50.8239],[12.6541,50.9165],[12.6373,50.9426],[12.4697,51.0889],[12.2971,51.0948],[12.3019,51.0434],[12.253,50.9815],[12.2525,50.9559],[12.2227,50.9562],[11.6033,51.1175],[11.5614,51.1101],[11.4897,51.1026],[11.4844,51.1583],[11.3659,51.2212],[11.4805,51.2991],[11.3978,51.3845],[10.9923,51.417],[10.8916,51.5958],[10.9395,51.6071],[10.8199,51.6408],[10.7051,51.6436],[10.6399,51.6193],[10.6342,51.6035],[10.6407,51.5802],[10.6705,51.574],[10.6472,51.5529],[10.3671,51.5553],[10.3027,51.5072],[9.9607,51.3939],[9.9371,51.3792],[9.9249,51.3718],[9.9735,51.2862],[10.237,51.1881],[10.2078,51.1512],[10.1247,51.1406],[10.1497,51.0551],[10.2033,51.0437],[10.2096,51.014],[10.1325,51.0107],[9.9484,50.9484],[10.0629,50.885],[9.8731,50.6418],[10.0735,50.6585],[10.0863,50.6212],[10.0456,50.5234],[10.0398,50.5159],[10.122,50.5575],[10.1398,50.5425],[10.6055,50.3302],[10.6178,50.248],[10.6414,50.2182],[10.6881,50.2183],[10.7346,50.2484],[10.7576,50.2373],[10.8036,50.2487],[10.8267,50.234],[10.8554,50.249],[10.7748,50.2896],[10.7173,50.3229],[10.7341,50.3452],[10.7169,50.3415],[10.7223,50.3601],[11.1132,50.3649],[11.1424,50.2871],[11.2517,50.2652],[11.2481,50.4769],[11.3481,50.5219],[11.4301,50.5147],[11.522,50.3735],[11.7516,50.4151],[11.8158,50.4041],[11.8333,50.4041],[11.8683,50.4042],[11.8864,50.4192],[11.9393,50.4269]]]},"properties":{"id":"DE-TH","name":"Thüringen","type":"State"}}
]}